[{"OBJECT_NAME":"STARLINK-32104","OBJECT_ID":"2024-086P","EPOCH":"2026-03-08T23:58:16.174848","MEAN_MOTION":15.27576384,"ECCENTRICITY":8.252e-5,"INCLINATION":43.0055,"RA_OF_ASC_NODE":60.5074,"ARG_OF_PERICENTER":257.127,"MEAN_ANOMALY":102.9489,"EPHEMERIS_TYPE":0,"CLASSIFICATION_TYPE":"U","NORAD_CAT_ID":59695,"ELEMENT_SET_NO":999,"REV_AT_EPOCH":10404,"BSTAR":-4.989614e-6,"MEAN_MOTION_DOT":-3.99e-6,"MEAN_MOTION_DDOT":0},{"OBJECT_NAME":"COSMOS 2251 DEB","OBJECT_ID":"1993-036AWN","EPOCH":"2026-03-09T06:26:08.321568","MEAN_MOTION":15.11257706,"ECCENTRICITY":0.00842289,"INCLINATION":74.0116,"RA_OF_ASC_NODE":284.5024,"ARG_OF_PERICENTER":350.308,"MEAN_ANOMALY":9.6482,"EPHEMERIS_TYPE":0,"CLASSIFICATION_TYPE":"U","NORAD_CAT_ID":35996,"ELEMENT_SET_NO":999,"REV_AT_EPOCH":73632,"BSTAR":0.00055219842,"MEAN_MOTION_DOT":0.00010085,"MEAN_MOTION_DDOT":0}]
